LANDSAT 9               
1 49260U 21088A   23190.13658054  .00000440  00000+0  10786-3 0  9999
2 49260  98.2289 259.7632 0001170  97.6338 262.4994 14.57102940 94585
